{"type": "FeatureCollection", "features": [ {"type": "Feature", "properties": {"norad_id": 31365, "name": "FENGYUN 1C DEB", "group": "fengyun-1c-debris", "lat": -79.62210683713748, "lon": 123.14640576535767, "alt_km": 737.4287937921972, "timestamp": "2025-12-07T16:44:04.193293+00:00", "meta": {"OBJECT_NAME": "FENGYUN 1C DEB", "OBJECT_ID": "1999-025BRV", "EPOCH": "2025-12-06T17:48:21.137184", "MEAN_MOTION": 14.41721939, "ECCENTRICITY": 0.00421298, "INCLINATION": 98.6753, "RA_OF_ASC_NODE": 65.6958, "ARG_OF_PERICENTER": 237.2941, "MEAN_ANOMALY": 122.4182, "EPHEMERIS_TYPE": 0, "CLASSIFICATION_TYPE": "U", "NORAD_CAT_ID": 31365, "ELEMENT_SET_NO": 999, "REV_AT_EPOCH": 96542, "BSTAR": 0.0037457597, "MEAN_MOTION_DOT": 0.00012324, "MEAN_MOTION_DDOT": 0}, "tle": {"line1": "1 31365U 99025BRV 25340.74191131  .00012324  00000+0  37458-2 0  9994", "line2": "2 31365  98.6753  65.6958 0042129 237.2941 122.4182 14.41721939965420"}}, "geometry": {"type": "Point", "coordinates": [123.14640576535767, -79.62210683713748]}}, {"type": "Feature", "properties": {"norad_id": 31367, "name": "FENGYUN 1C DEB", "group": "fengyun-1c-debris", "lat": 72.88277401037459, "lon": -154.2017344117171, "alt_km": 675.4350944268308, "timestamp": "2025-12-07T16:44:04.193303+00:00", "meta": {"OBJECT_NAME": "FENGYUN 1C DEB", "OBJECT_ID": "1999-025BRX", "EPOCH": "2025-12-06T15:46:19.495776", "MEAN_MOTION": 14.47445401, "ECCENTRICITY": 0.0099786, "INCLINATION": 98.7465, "RA_OF_ASC_NODE": 234.7165, "ARG_OF_PERICENTER": 34.5291, "MEAN_ANOMALY": 23.2946, "EPHEMERIS_TYPE": 0, "CLASSIFICATION_TYPE": "U", "NORAD_CAT_ID": 31367, "ELEMENT_SET_NO": 999, "REV_AT_EPOCH": 98378, "BSTAR": 0.0011410407, "MEAN_MOTION_DOT": 4.409e-05, "MEAN_MOTION_DDOT": 0}, "tle": {"line1": "1 31367U 99025BRX 25340.65717009  .00004409  00000+0  11410-2 0  9999", "line2": "2 31367  98.7465 234.7165 0099786  34.5291  23.2946 14.47445401983787"}}, "geometry": {"type": "Point", "coordinates": [-154.2017344117171, 72.88277401037459]}}, {"type": "Feature", "properties": {"norad_id": 31369, "name": "FENGYUN 1C DEB", "group": "fengyun-1c-debris", "lat": -80.94757928851689, "lon": 35.24832756558009, "alt_km": 805.0481888676559, "timestamp": "2025-12-07T16:44:04.193314+00:00", "meta": {"OBJECT_NAME": "FENGYUN 1C DEB", "OBJECT_ID": "1999-025BRZ", "EPOCH": "2025-12-02T05:15:55.988064", "MEAN_MOTION": 14.19388452, "ECCENTRICITY": 0.005489, "INCLINATION": 98.6175, "RA_OF_ASC_NODE": 317.7793, "ARG_OF_PERICENTER": 330.1727, "MEAN_ANOMALY": 47.9039, "EPHEMERIS_TYPE": 0, "CLASSIFICATION_TYPE": "U", "NORAD_CAT_ID": 31369, "ELEMENT_SET_NO": 999, "REV_AT_EPOCH": 64178, "BSTAR": 0.00040201, "MEAN_MOTION_DOT": 8.15e-06, "MEAN_MOTION_DDOT": 0}, "tle": {"line1": "1 31369U 99025BRZ 25336.21939801  .00000815  00000+0  40201-3 0  9992", "line2": "2 31369  98.6175 317.7793 0054890 330.1727  47.9039 14.19388452641789"}}, "geometry": {"type": "Point", "coordinates": [35.24832756558009, -80.94757928851689]}}, {"type": "Feature", "properties": {"norad_id": 31370, "name": "FENGYUN 1C DEB", "group": "fengyun-1c-debris", "lat": -42.45814611961396, "lon": 153.7440145945015, "alt_km": 866.6338725008109, "timestamp": "2025-12-07T16:44:04.193324+00:00", "meta": {"OBJECT_NAME": "FENGYUN 1C DEB", "OBJECT_ID": "1999-025BSA", "EPOCH": "2025-12-03T11:10:24.268224", "MEAN_MOTION": 14.09686903, "ECCENTRICITY": 0.00337804, "INCLINATION": 98.7524, "RA_OF_ASC_NODE": 337.7333, "ARG_OF_PERICENTER": 324.3179, "MEAN_ANOMALY": 35.5734, "EPHEMERIS_TYPE": 0, "CLASSIFICATION_TYPE": "U", "NORAD_CAT_ID": 31370, "ELEMENT_SET_NO": 999, "REV_AT_EPOCH": 96163, "BSTAR": 0.0004582284, "MEAN_MOTION_DOT": 7.65e-06, "MEAN_MOTION_DDOT": 0}, "tle": {"line1": "1 31370U 99025BSA 25337.46555866  .00000765  00000+0  45823-3 0  9996", "line2": "2 31370  98.7524 337.7333 0033780 324.3179  35.5734 14.09686903961638"}}, "geometry": {"type": "Point", "coordinates": [153.7440145945015, -42.45814611961396]}}, {"type": "Feature", "properties": {"norad_id": 31371, "name": "FENGYUN 1C DEB", "group": "fengyun-1c-debris", "lat": -39.00027915840348, "lon": -172.3173403506899, "alt_km": 842.2864975431567, "timestamp": "2025-12-07T16:44:04.193334+00:00", "meta": {"OBJECT_NAME": "FENGYUN 1C DEB", "OBJECT_ID": "1999-025BSB", "EPOCH": "2025-12-03T19:21:30.444768", "MEAN_MOTION": 14.04472335, "ECCENTRICITY": 0.00776168, "INCLINATION": 98.7673, "RA_OF_ASC_NODE": 11.1049, "ARG_OF_PERICENTER": 271.8024, "MEAN_ANOMALY": 87.4256, "EPHEMERIS_TYPE": 0, "CLASSIFICATION_TYPE": "U", "NORAD_CAT_ID": 31371, "ELEMENT_SET_NO": 999, "REV_AT_EPOCH": 95621, "BSTAR": 0.0012264361, "MEAN_MOTION_DOT": 1.966e-05, "MEAN_MOTION_DDOT": 0}, "tle": {"line1": "1 31371U 99025BSB 25337.80660237  .00001966  00000+0  12264-2 0  9990", "line2": "2 31371  98.7673  11.1049 0077616 271.8024  87.4256 14.04472335956212"}}, "geometry": {"type": "Point", "coordinates": [-172.3173403506899, -39.00027915840348]}}, {"type": "Feature", "properties": {"norad_id": 31372, "name": "FENGYUN 1C DEB", "group": "fengyun-1c-debris", "lat": -75.16779823889475, "lon": 10.976103413502297, "alt_km": 834.4053697217669, "timestamp": "2025-12-07T16:44:04.193345+00:00", "meta": {"OBJECT_NAME": "FENGYUN 1C DEB", "OBJECT_ID": "1999-025BSC", "EPOCH": "2025-12-05T16:17:03.678720", "MEAN_MOTION": 14.26456991, "ECCENTRICITY": 0.00337216, "INCLINATION": 99.373, "RA_OF_ASC_NODE": 330.228, "ARG_OF_PERICENTER": 94.6655, "MEAN_ANOMALY": 265.8376, "EPHEMERIS_TYPE": 0, "CLASSIFICATION_TYPE": "U", "NORAD_CAT_ID": 31372, "ELEMENT_SET_NO": 999, "REV_AT_EPOCH": 95750, "BSTAR": 0.0028508438, "MEAN_MOTION_DOT": 6.861e-05, "MEAN_MOTION_DDOT": 0}, "tle": {"line1": "1 31372U 99025BSC 25339.67851480  .00006861  00000+0  28508-2 0  9997", "line2": "2 31372  99.3730 330.2280 0033721  94.6655 265.8376 14.26456991957508"}}, "geometry": {"type": "Point", "coordinates": [10.976103413502297, -75.16779823889475]}}, {"type": "Feature", "properties": {"norad_id": 31376, "name": "FENGYUN 1C DEB", "group": "fengyun-1c-debris", "lat": -80.7474176880719, "lon": 4.880911998361958, "alt_km": 661.8697750563488, "timestamp": "2025-12-07T16:44:04.193355+00:00", "meta": {"OBJECT_NAME": "FENGYUN 1C DEB", "OBJECT_ID": "1999-025BSG", "EPOCH": "2025-12-06T11:34:46.790400", "MEAN_MOTION": 14.61496, "ECCENTRICITY": 0.00499065, "INCLINATION": 98.8344, "RA_OF_ASC_NODE": 256.2713, "ARG_OF_PERICENTER": 288.5927, "MEAN_ANOMALY": 70.9856, "EPHEMERIS_TYPE": 0, "CLASSIFICATION_TYPE": "U", "NORAD_CAT_ID": 31376, "ELEMENT_SET_NO": 999, "REV_AT_EPOCH": 98051, "BSTAR": 0.0045827369, "MEAN_MOTION_DOT": 0.00023147, "MEAN_MOTION_DDOT": 0}, "tle": {"line1": "1 31376U 99025BSG 25340.48248600  .00023147  00000+0  45827-2 0  9995", "line2": "2 31376  98.8344 256.2713 0049906 288.5927  70.9856 14.61496000980512"}}, "geometry": {"type": "Point", "coordinates": [4.880911998361958, -80.7474176880719]}}, {"type": "Feature", "properties": {"norad_id": 31378, "name": "FENGYUN 1C DEB", "group": "fengyun-1c-debris", "lat": -67.50235222662216, "lon": -102.74569478768957, "alt_km": 945.6810859627221, "timestamp": "2025-12-07T16:44:04.193366+00:00", "meta": {"OBJECT_NAME": "FENGYUN 1C DEB", "OBJECT_ID": "1999-025BSJ", "EPOCH": "2025-12-05T21:34:45.002208", "MEAN_MOTION": 13.80059858, "ECCENTRICITY": 0.01686287, "INCLINATION": 100.7554, "RA_OF_ASC_NODE": 227.8951, "ARG_OF_PERICENTER": 215.1982, "MEAN_ANOMALY": 143.7934, "EPHEMERIS_TYPE": 0, "CLASSIFICATION_TYPE": "U", "NORAD_CAT_ID": 31378, "ELEMENT_SET_NO": 999, "REV_AT_EPOCH": 94129, "BSTAR": 0.0011323051, "MEAN_MOTION_DOT": 1.254e-05, "MEAN_MOTION_DDOT": 0}, "tle": {"line1": "1 31378U 99025BSJ 25339.89913197  .00001254  00000+0  11323-2 0  9999", "line2": "2 31378 100.7554 227.8951 0168628 215.1982 143.7934 13.80059858941292"}}, "geometry": {"type": "Point", "coordinates": [-102.74569478768957, -67.50235222662216]}}, {"type": "Feature", "properties": {"norad_id": 31381, "name": "FENGYUN 1C DEB", "group": "fengyun-1c-debris", "lat": -35.909667350890885, "lon": -121.04899586598432, "alt_km": 914.2019717095736, "timestamp": "2025-12-07T16:44:04.193376+00:00", "meta": {"OBJECT_NAME": "FENGYUN 1C DEB", "OBJECT_ID": "1999-025BSM", "EPOCH": "2025-12-06T11:19:58.452384", "MEAN_MOTION": 14.3702368, "ECCENTRICITY": 0.01989303, "INCLINATION": 98.493, "RA_OF_ASC_NODE": 63.9529, "ARG_OF_PERICENTER": 50.6688, "MEAN_ANOMALY": 311.1945, "EPHEMERIS_TYPE": 0, "CLASSIFICATION_TYPE": "U", "NORAD_CAT_ID": 31381, "ELEMENT_SET_NO": 999, "REV_AT_EPOCH": 97310, "BSTAR": 0.00062022394, "MEAN_MOTION_DOT": 2.261e-05, "MEAN_MOTION_DDOT": 0}, "tle": {"line1": "1 31381U 99025BSM 25340.47220431  .00002261  00000+0  62022-3 0  9993", "line2": "2 31381  98.4930  63.9529 0198930  50.6688 311.1945 14.37023680973106"}}, "geometry": {"type": "Point", "coordinates": [-121.04899586598432, -35.909667350890885]}}, {"type": "Feature", "properties": {"norad_id": 31383, "name": "FENGYUN 1C DEB", "group": "fengyun-1c-debris", "lat": 78.10534304546619, "lon": -87.06573423894737, "alt_km": 912.3111551776883, "timestamp": "2025-12-07T16:44:04.193386+00:00", "meta": {"OBJECT_NAME": "FENGYUN 1C DEB", "OBJECT_ID": "1999-025BSP", "EPOCH": "2025-12-06T15:22:52.710240", "MEAN_MOTION": 14.05680156, "ECCENTRICITY": 0.010778, "INCLINATION": 99.0681, "RA_OF_ASC_NODE": 42.5718, "ARG_OF_PERICENTER": 334.5787, "MEAN_ANOMALY": 179.2886, "EPHEMERIS_TYPE": 0, "CLASSIFICATION_TYPE": "U", "NORAD_CAT_ID": 31383, "ELEMENT_SET_NO": 999, "REV_AT_EPOCH": 95283, "BSTAR": 0.0011903311, "MEAN_MOTION_DOT": 1.999e-05, "MEAN_MOTION_DDOT": 0}, "tle": {"line1": "1 31383U 99025BSP 25340.64088785  .00001999  00000+0  11903-2 0  9996", "line2": "2 31383  99.0681  42.5718 0107780 334.5787 179.2886 14.05680156952834"}}, "geometry": {"type": "Point", "coordinates": [-87.06573423894737, 78.10534304546619]}}]}